{"type": "FeatureCollection", "features": [{"type": "Feature", "properties": {"norad_id": 66315, "name": "SENTINEL-1D", "group": "last-30-days", "lat": 27.23067042103806, "lon": -20.948044843818867, "alt_km": 693.3993041630674, "timestamp": "2025-12-04T03:47:53.333918+00:00", "meta": {"OBJECT_NAME": "SENTINEL-1D", "OBJECT_ID": "2025-251A", "EPOCH": "2025-12-03T11:13:23.701152", "MEAN_MOTION": 14.59910948, "ECCENTRICITY": 0.0002643, "INCLINATION": 98.1924, "RA_OF_ASC_NODE": 342.6213, "ARG_OF_PERICENTER": 153.1684, "MEAN_ANOMALY": 206.9653, "EPHEMERIS_TYPE": 0, "CLASSIFICATION_TYPE": "U", "NORAD_CAT_ID": 66315, "ELEMENT_SET_NO": 999, "REV_AT_EPOCH": 418, "BSTAR": 8.0504e-05, "MEAN_MOTION_DOT": 3.39e-06, "MEAN_MOTION_DDOT": 0}, "tle": {"line1": "1 66315U 25251A   25337.46763543  .00000339  00000+0  80504-4 0  9999", "line2": "2 66315  98.1924 342.6213 0002643 153.1684 206.9653 14.59910948  4184"}}, "geometry": {"type": "Point", "coordinates": [-20.948044843818867, 27.23067042103806]}}, {"type": "Feature", "properties": {"norad_id": 66316, "name": "QPS-SAR-14 (YACHIHOKO-I)", "group": "last-30-days", "lat": 27.414139976542685, "lon": -92.76091540611904, "alt_km": 566.6493909170104, "timestamp": "2025-12-04T03:47:53.333967+00:00", "meta": {"OBJECT_NAME": "QPS-SAR-14 (YACHIHOKO-I)", "OBJECT_ID": "2025-252A", "EPOCH": "2025-12-03T11:11:07.713600", "MEAN_MOTION": 14.97541562, "ECCENTRICITY": 0.0006838, "INCLINATION": 42.0031, "RA_OF_ASC_NODE": 126.2285, "ARG_OF_PERICENTER": 87.0305, "MEAN_ANOMALY": 273.1302, "EPHEMERIS_TYPE": 0, "CLASSIFICATION_TYPE": "U", "NORAD_CAT_ID": 66316, "ELEMENT_SET_NO": 999, "REV_AT_EPOCH": 414, "BSTAR": 0.00071031, "MEAN_MOTION_DOT": 8.256e-05, "MEAN_MOTION_DDOT": 0}, "tle": {"line1": "1 66316U 25252A   25337.46606150  .00008256  00000+0  71031-3 0  9991", "line2": "2 66316  42.0031 126.2285 0006838  87.0305 273.1302 14.97541562  4149"}}, "geometry": {"type": "Point", "coordinates": [-92.76091540611904, 27.414139976542685]}}, {"type": "Feature", "properties": {"norad_id": 66317, "name": "ELECTRON R/B", "group": "last-30-days", "lat": -34.46212389791866, "lon": -27.611663922459687, "alt_km": 284.56192080534765, "timestamp": "2025-12-04T03:47:53.333986+00:00", "meta": {"OBJECT_NAME": "ELECTRON R/B", "OBJECT_ID": "2025-252B", "EPOCH": "2025-12-03T17:54:17.702208", "MEAN_MOTION": 16.11372677, "ECCENTRICITY": 0.0081081, "INCLINATION": 41.986, "RA_OF_ASC_NODE": 105.3311, "ARG_OF_PERICENTER": 73.5218, "MEAN_ANOMALY": 287.4538, "EPHEMERIS_TYPE": 0, "CLASSIFICATION_TYPE": "U", "NORAD_CAT_ID": 66317, "ELEMENT_SET_NO": 999, "REV_AT_EPOCH": 440, "BSTAR": 0.0017947, "MEAN_MOTION_DOT": 0.03381088, "MEAN_MOTION_DDOT": 8.1863e-06}, "tle": {"line1": "1 66317U 25252B   25337.74603822  .03381088  81863-5  17947-2 0  9993", "line2": "2 66317  41.9860 105.3311 0081081  73.5218 287.4538 16.11372677  4407"}}, "geometry": {"type": "Point", "coordinates": [-27.611663922459687, -34.46212389791866]}}, {"type": "Feature", "properties": {"norad_id": 66319, "name": "STARLINK-35442", "group": "last-30-days", "lat": 42.88806065755669, "lon": 120.72050217755401, "alt_km": 437.7200841434005, "timestamp": "2025-12-04T03:47:53.334000+00:00", "meta": {"OBJECT_NAME": "STARLINK-35442", "OBJECT_ID": "2025-253A", "EPOCH": "2025-12-03T12:00:02.998944", "MEAN_MOTION": 15.40664245, "ECCENTRICITY": 0.0001055, "INCLINATION": 43.0009, "RA_OF_ASC_NODE": 39.124, "ARG_OF_PERICENTER": 268.8782, "MEAN_ANOMALY": 122.5263, "EPHEMERIS_TYPE": 0, "CLASSIFICATION_TYPE": "U", "NORAD_CAT_ID": 66319, "ELEMENT_SET_NO": 999, "REV_AT_EPOCH": 554, "BSTAR": 0.0020114, "MEAN_MOTION_DOT": 0.00084554, "MEAN_MOTION_DDOT": 0}, "tle": {"line1": "1 66319U 25253A   25337.50003471  .00084554  00000+0  20114-2 0  9997", "line2": "2 66319  43.0009  39.1240 0001055 268.8782 122.5263 15.40664245  5546"}}, "geometry": {"type": "Point", "coordinates": [120.72050217755401, 42.88806065755669]}}, {"type": "Feature", "properties": {"norad_id": 66320, "name": "STARLINK-34616", "group": "last-30-days", "lat": -40.43510062329022, "lon": -78.93557995050404, "alt_km": 415.4687372524613, "timestamp": "2025-12-04T03:47:53.334013+00:00", "meta": {"OBJECT_NAME": "STARLINK-34616", "OBJECT_ID": "2025-253B", "EPOCH": "2025-12-03T11:15:28.442880", "MEAN_MOTION": 15.50616353, "ECCENTRICITY": 0.0003705, "INCLINATION": 42.9968, "RA_OF_ASC_NODE": 38.956, "ARG_OF_PERICENTER": 219.5351, "MEAN_ANOMALY": 140.524, "EPHEMERIS_TYPE": 0, "CLASSIFICATION_TYPE": "U", "NORAD_CAT_ID": 66320, "ELEMENT_SET_NO": 999, "REV_AT_EPOCH": 557, "BSTAR": 0.0021204, "MEAN_MOTION_DOT": 0.00126267, "MEAN_MOTION_DDOT": 0}, "tle": {"line1": "1 66320U 25253B   25337.46907920  .00126267  00000+0  21204-2 0  9995", "line2": "2 66320  42.9968  38.9560 0003705 219.5351 140.5240 15.50616353  5577"}}, "geometry": {"type": "Point", "coordinates": [-78.93557995050404, -40.43510062329022]}}, {"type": "Feature", "properties": {"norad_id": 66321, "name": "STARLINK-34615", "group": "last-30-days", "lat": -25.118004290945883, "lon": -115.66699399658395, "alt_km": 410.0565220152639, "timestamp": "2025-12-04T03:47:53.334049+00:00", "meta": {"OBJECT_NAME": "STARLINK-34615", "OBJECT_ID": "2025-253C", "EPOCH": "2025-12-03T12:00:02.998944", "MEAN_MOTION": 15.56313072, "ECCENTRICITY": 0.0001086, "INCLINATION": 43.0003, "RA_OF_ASC_NODE": 38.0016, "ARG_OF_PERICENTER": 288.0579, "MEAN_ANOMALY": 202.1812, "EPHEMERIS_TYPE": 0, "CLASSIFICATION_TYPE": "U", "NORAD_CAT_ID": 66321, "ELEMENT_SET_NO": 999, "REV_AT_EPOCH": 549, "BSTAR": -0.037468, "MEAN_MOTION_DOT": -0.02370563, "MEAN_MOTION_DDOT": 0}, "tle": {"line1": "1 66321U 25253C   25337.50003471 -.02370563  00000+0 -37468-1 0  9991", "line2": "2 66321  43.0003  38.0016 0001086 288.0579 202.1812 15.56313072  5499"}}, "geometry": {"type": "Point", "coordinates": [-115.66699399658395, -25.118004290945883]}}, {"type": "Feature", "properties": {"norad_id": 66322, "name": "STARLINK-35292", "group": "last-30-days", "lat": 34.53649154340553, "lon": 167.6308581440009, "alt_km": 440.17451616066046, "timestamp": "2025-12-04T03:47:53.334063+00:00", "meta": {"OBJECT_NAME": "STARLINK-35292", "OBJECT_ID": "2025-253D", "EPOCH": "2025-12-03T08:00:01.999872", "MEAN_MOTION": 15.40741255, "ECCENTRICITY": 0.0001089, "INCLINATION": 43.0008, "RA_OF_ASC_NODE": 39.9907, "ARG_OF_PERICENTER": 281.0636, "MEAN_ANOMALY": 302.2538, "EPHEMERIS_TYPE": 0, "CLASSIFICATION_TYPE": "U", "NORAD_CAT_ID": 66322, "ELEMENT_SET_NO": 999, "REV_AT_EPOCH": 541, "BSTAR": -0.0049108334, "MEAN_MOTION_DOT": -0.00200416, "MEAN_MOTION_DDOT": 0}, "tle": {"line1": "1 66322U 25253D   25337.33335648 -.00200416  00000+0 -49108-2 0  9999", "line2": "2 66322  43.0008  39.9907 0001089 281.0636 302.2538 15.40741255  5414"}}, "geometry": {"type": "Point", "coordinates": [167.6308581440009, 34.53649154340553]}}, {"type": "Feature", "properties": {"norad_id": 66323, "name": "STARLINK-35309", "group": "last-30-days", "lat": -42.931056760317574, "lon": -58.42331509613119, "alt_km": 416.97978214984687, "timestamp": "2025-12-04T03:47:53.334075+00:00", "meta": {"OBJECT_NAME": "STARLINK-35309", "OBJECT_ID": "2025-253E", "EPOCH": "2025-12-03T11:11:28.271616", "MEAN_MOTION": 15.50628793, "ECCENTRICITY": 0.0001247, "INCLINATION": 42.9992, "RA_OF_ASC_NODE": 38.9354, "ARG_OF_PERICENTER": 262.09, "MEAN_ANOMALY": 97.9819, "EPHEMERIS_TYPE": 0, "CLASSIFICATION_TYPE": "U", "NORAD_CAT_ID": 66323, "ELEMENT_SET_NO": 999, "REV_AT_EPOCH": 549, "BSTAR": 0.0018357, "MEAN_MOTION_DOT": 0.00109054, "MEAN_MOTION_DDOT": 0}, "tle": {"line1": "1 66323U 25253E   25337.46629944  .00109054  00000+0  18357-2 0  9995", "line2": "2 66323  42.9992  38.9354 0001247 262.0900  97.9819 15.50628793  5499"}}, "geometry": {"type": "Point", "coordinates": [-58.42331509613119, -42.931056760317574]}}, {"type": "Feature", "properties": {"norad_id": 66324, "name": "STARLINK-35506", "group": "last-30-days", "lat": -42.29376497077382, "lon": -67.59772456747564, "alt_km": 417.17817515254137, "timestamp": "2025-12-04T03:47:53.334086+00:00", "meta": {"OBJECT_NAME": "STARLINK-35506", "OBJECT_ID": "2025-253F", "EPOCH": "2025-12-02T21:18:38.393568", "MEAN_MOTION": 15.50722844, "ECCENTRICITY": 0.00011072, "INCLINATION": 42.9991, "RA_OF_ASC_NODE": 42.3374, "ARG_OF_PERICENTER": 339.0363, "MEAN_ANOMALY": 21.0451, "EPHEMERIS_TYPE": 0, "CLASSIFICATION_TYPE": "U", "NORAD_CAT_ID": 66324, "ELEMENT_SET_NO": 999, "REV_AT_EPOCH": 540, "BSTAR": 0.0016172001, "MEAN_MOTION_DOT": 0.00096197, "MEAN_MOTION_DDOT": 0}, "tle": {"line1": "1 66324U 25253F   25336.88794437  .00096197  00000+0  16172-2 0  9997", "line2": "2 66324  42.9991  42.3374 0001107 339.0363  21.0451 15.50722844  5406"}}, "geometry": {"type": "Point", "coordinates": [-67.59772456747564, -42.29376497077382]}}, {"type": "Feature", "properties": {"norad_id": 66325, "name": "STARLINK-35504", "group": "last-30-days", "lat": -20.25066253869774, "lon": -121.64932203857425, "alt_km": 449.1611301602534, "timestamp": "2025-12-04T03:47:53.334097+00:00", "meta": {"OBJECT_NAME": "STARLINK-35504", "OBJECT_ID": "2025-253G", "EPOCH": "2025-12-03T12:00:02.998944", "MEAN_MOTION": 15.41791328, "ECCENTRICITY": 0.0001655, "INCLINATION": 43.0004, "RA_OF_ASC_NODE": 38.822, "ARG_OF_PERICENTER": 297.9733, "MEAN_ANOMALY": 217.2756, "EPHEMERIS_TYPE": 0, "CLASSIFICATION_TYPE": "U", "NORAD_CAT_ID": 66325, "ELEMENT_SET_NO": 999, "REV_AT_EPOCH": 544, "BSTAR": -0.038739, "MEAN_MOTION_DOT": -0.01514849, "MEAN_MOTION_DDOT": 0}, "tle": {"line1": "1 66325U 25253G   25337.50003471 -.01514849  00000+0 -38739-1 0  9993", "line2": "2 66325  43.0004  38.8220 0001655 297.9733 217.2756 15.41791328  5449"}}, "geometry": {"type": "Point", "coordinates": [-121.64932203857425, -20.25066253869774]}}]}